start=new Date('2022-09-07T00:00:00.000Z').valueOf();
sats=[{"NORAD_CAT_ID":"53388","MEAN_ELEMENT_THEORY":"SGP4","INCLINATION":"53.2173","TIME_SYSTEM":"UTC","ELEMENT_SET_NO":"999","SEMIMAJOR_AXIS":"6800.334","MEAN_MOTION":"15.48129818","ECCENTRICITY":"0.00012090","OBJECT_NAME":"STARLINK-4522","ARG_OF_PERICENTER":"64.8219","REV_AT_EPOCH":"130","CENTER_NAME":"EARTH","SITE":"AFETR","PERIOD":"93.015","MEAN_MOTION_DDOT":"0.0000000000000","RA_OF_ASC_NODE":"111.6936","APOAPSIS":"423.021","LAUNCH_DATE":"2022-08-10","EPOCH":"2022-09-06T22:00:00.999936","TLE_LINE2":"2 53388  53.2173 111.6936 0001209  64.8219 315.9527 15.48129818  1302","RCS_SIZE":"LARGE","FILE":"3561419","CLASSIFICATION_TYPE":"U","COUNTRY_CODE":"US","OBJECT_TYPE":"PAYLOAD","PERIAPSIS":"421.377","TLE_LINE1":"1 53388U 22097A   22249.91667824 -.01103176  00000-0 -22875-1 0  9995","MEAN_MOTION_DOT":"-0.01103176","OBJECT_ID":"2022-097A","DECAY_DATE":null,"REF_FRAME":"TEME","MEAN_ANOMALY":"315.9527","EPHEMERIS_TYPE":"0","GP_ID":"211924340","BSTAR":"-0.02287500000000"},{"FILE":"3561419","CLASSIFICATION_TYPE":"U","RCS_SIZE":"LARGE","COUNTRY_CODE":"US","PERIAPSIS":"419.439","TLE_LINE1":"1 53389U 22097B   22249.91667824 -.01117565  00000-0 -22690-1 0  9998","OBJECT_TYPE":"PAYLOAD","DECAY_DATE":null,"MEAN_MOTION_DOT":"-0.01117565","OBJECT_ID":"2022-097B","REF_FRAME":"TEME","MEAN_ANOMALY":"333.0324","GP_ID":"211923877","BSTAR":"-0.02269000000000","EPHEMERIS_TYPE":"0","NORAD_CAT_ID":"53389","MEAN_ELEMENT_THEORY":"SGP4","INCLINATION":"53.2173","SEMIMAJOR_AXIS":"6798.474","ELEMENT_SET_NO":"999","TIME_SYSTEM":"UTC","MEAN_MOTION":"15.48765369","ECCENTRICITY":"0.00013230","OBJECT_NAME":"STARLINK-4523","MEAN_MOTION_DDOT":"0.0000000000000","ARG_OF_PERICENTER":"50.7676","REV_AT_EPOCH":"130","SITE":"AFETR","CENTER_NAME":"EARTH","PERIOD":"92.977","RA_OF_ASC_NODE":"111.7171","APOAPSIS":"421.238","TLE_LINE2":"2 53389  53.2173 111.7171 0001323  50.7676 333.0324 15.48765369  1306","EPOCH":"2022-09-06T22:00:00.999936","LAUNCH_DATE":"2022-08-10"},{"OBJECT_TYPE":"PAYLOAD","PERIAPSIS":"420.484","TLE_LINE1":"1 53390U 22097C   22249.91667824 -.01137588  00000-0 -23020-1 0  9995","COUNTRY_CODE":"US","RCS_SIZE":"LARGE","FILE":"3561419","CLASSIFICATION_TYPE":"U","EPHEMERIS_TYPE":"0","GP_ID":"211924391","BSTAR":"-0.02302000000000","MEAN_ANOMALY":"314.0660","REF_FRAME":"TEME","MEAN_MOTION_DOT":"-0.01137588","OBJECT_ID":"2022-097C","DECAY_DATE":null,"OBJECT_NAME":"STARLINK-4517","MEAN_MOTION":"15.48458006","ECCENTRICITY":"0.00011090","TIME_SYSTEM":"UTC","ELEMENT_SET_NO":"999","SEMIMAJOR_AXIS":"6799.373","NORAD_CAT_ID":"53390","MEAN_ELEMENT_THEORY":"SGP4","INCLINATION":"53.2174","LAUNCH_DATE":"2022-08-10","EPOCH":"2022-09-06T22:00:00.999936","TLE_LINE2":"2 53390  53.2174 111.7056 0001109  68.2870 314.0660 15.48458006  1302","APOAPSIS":"421.992","RA_OF_ASC_NODE":"111.7056","ARG_OF_PERICENTER":"68.2870","REV_AT_EPOCH":"130","CENTER_NAME":"EARTH","SITE":"AFETR","PERIOD":"92.996","MEAN_MOTION_DDOT":"0.0000000000000"},{"REF_FRAME":"TEME","OBJECT_ID":"2022-097D","MEAN_MOTION_DOT":"-0.00742073","DECAY_DATE":null,"EPHEMERIS_TYPE":"0","BSTAR":"-0.01471300000000","GP_ID":"211924031","MEAN_ANOMALY":"317.5340","RCS_SIZE":"LARGE","CLASSIFICATION_TYPE":"U","FILE":"3561419","OBJECT_TYPE":"PAYLOAD","TLE_LINE1":"1 53391U 22097D   22249.91667824 -.00742073  00000-0 -14713-1 0  9995","PERIAPSIS":"419.541","COUNTRY_CODE":"US","RA_OF_ASC_NODE":"111.7314","SITE":"AFETR","PERIOD":"92.976","CENTER_NAME":"EARTH","REV_AT_EPOCH":"130","ARG_OF_PERICENTER":"67.7246","MEAN_MOTION_DDOT":"0.0000000000000","EPOCH":"2022-09-06T22:00:00.999936","LAUNCH_DATE":"2022-08-10","TLE_LINE2":"2 53391  53.2181 111.7314 0001075  67.7246 317.5340 15.48788313  1301","APOAPSIS":"421.002","TIME_SYSTEM":"UTC","SEMIMAJOR_AXIS":"6798.407","ELEMENT_SET_NO":"999","INCLINATION":"53.2181","NORAD_CAT_ID":"53391","MEAN_ELEMENT_THEORY":"SGP4","OBJECT_NAME":"STARLINK-4521","ECCENTRICITY":"0.00010750","MEAN_MOTION":"15.48788313"},{"RA_OF_ASC_NODE":"111.7605","MEAN_MOTION_DDOT":"0.0000000000000","SITE":"AFETR","PERIOD":"92.937","CENTER_NAME":"EARTH","ARG_OF_PERICENTER":"72.6145","REV_AT_EPOCH":"130","TLE_LINE2":"2 53392  53.2177 111.7605 0001080  72.6145 314.7813 15.49432548  1300","LAUNCH_DATE":"2022-08-10","EPOCH":"2022-09-06T22:00:00.999936","APOAPSIS":"419.121","ELEMENT_SET_NO":"999","SEMIMAJOR_AXIS":"6796.522","TIME_SYSTEM":"UTC","INCLINATION":"53.2177","MEAN_ELEMENT_THEORY":"SGP4","NORAD_CAT_ID":"53392","OBJECT_NAME":"STARLINK-4535","ECCENTRICITY":"0.00010800","MEAN_MOTION":"15.49432548","REF_FRAME":"TEME","DECAY_DATE":null,"OBJECT_ID":"2022-097E","MEAN_MOTION_DOT":"-0.00757728","BSTAR":"-0.01471000000000","GP_ID":"211924546","EPHEMERIS_TYPE":"0","MEAN_ANOMALY":"314.7813","CLASSIFICATION_TYPE":"U","FILE":"3561419","RCS_SIZE":"LARGE","TLE_LINE1":"1 53392U 22097E   22249.91667824 -.00757728  00000-0 -14710-1 0  9996","PERIAPSIS":"417.653","OBJECT_TYPE":"PAYLOAD","COUNTRY_CODE":"US"},{"OBJECT_NAME":"STARLINK-4530","ECCENTRICITY":"0.00011670","MEAN_MOTION":"15.49239519","SEMIMAJOR_AXIS":"6797.087","ELEMENT_SET_NO":"999","TIME_SYSTEM":"UTC","INCLINATION":"53.2177","MEAN_ELEMENT_THEORY":"SGP4","NORAD_CAT_ID":"53393","TLE_LINE2":"2 53393  53.2177 111.7446 0001167  74.9550 311.3734 15.49239519  1303","EPOCH":"2022-09-06T22:00:00.999936","LAUNCH_DATE":"2022-08-10","APOAPSIS":"419.745","RA_OF_ASC_NODE":"111.7446","MEAN_MOTION_DDOT":"0.0000000000000","SITE":"AFETR","CENTER_NAME":"EARTH","PERIOD":"92.949","ARG_OF_PERICENTER":"74.9550","REV_AT_EPOCH":"130","TLE_LINE1":"1 53393U 22097F   22249.91667824 -.00925478  00000-0 -18147-1 0  9994","PERIAPSIS":"418.158","OBJECT_TYPE":"PAYLOAD","COUNTRY_CODE":"US","CLASSIFICATION_TYPE":"U","FILE":"3561419","RCS_SIZE":"LARGE","BSTAR":"-0.01814700000000","GP_ID":"211923464","EPHEMERIS_TYPE":"0","MEAN_ANOMALY":"311.3734","REF_FRAME":"TEME","DECAY_DATE":null,"OBJECT_ID":"2022-097F","MEAN_MOTION_DOT":"-0.00925478"},{"COUNTRY_CODE":"US","OBJECT_TYPE":"PAYLOAD","TLE_LINE1":"1 53394U 22097G   22249.91667824  .00038460  00000-0  27729-3 0  9997","PERIAPSIS":"349.031","RCS_SIZE":"LARGE","CLASSIFICATION_TYPE":"U","FILE":"3561419","MEAN_ANOMALY":"267.5298","EPHEMERIS_TYPE":"0","BSTAR":"0.00027729000000","GP_ID":"211924186","OBJECT_ID":"2022-097G","MEAN_MOTION_DOT":"0.00038460","DECAY_DATE":null,"REF_FRAME":"TEME","ECCENTRICITY":"0.00011190","MEAN_MOTION":"15.73191652","OBJECT_NAME":"STARLINK-4544","INCLINATION":"53.2195","NORAD_CAT_ID":"53394","MEAN_ELEMENT_THEORY":"SGP4","TIME_SYSTEM":"UTC","SEMIMAJOR_AXIS":"6727.919","ELEMENT_SET_NO":"999","APOAPSIS":"350.537","LAUNCH_DATE":"2022-08-10","EPOCH":"2022-09-06T22:00:00.999936","TLE_LINE2":"2 53394  53.2195 110.4717 0001119  68.0815 267.5298 15.73191652  1305","SITE":"AFETR","PERIOD":"91.534","CENTER_NAME":"EARTH","REV_AT_EPOCH":"130","ARG_OF_PERICENTER":"68.0815","MEAN_MOTION_DDOT":"0.0000000000000","RA_OF_ASC_NODE":"110.4717"},{"LAUNCH_DATE":"2022-08-10","EPOCH":"2022-09-06T22:00:00.999936","TLE_LINE2":"2 53395  53.2177 111.7741 0001040  80.0427 308.0031 15.50131889  1300","APOAPSIS":"417.049","RA_OF_ASC_NODE":"111.7741","CENTER_NAME":"EARTH","SITE":"AFETR","PERIOD":"92.895","ARG_OF_PERICENTER":"80.0427","REV_AT_EPOCH":"130","MEAN_MOTION_DDOT":"0.0000000000000","OBJECT_NAME":"STARLINK-4534","ECCENTRICITY":"0.00010400","MEAN_MOTION":"15.50131889","TIME_SYSTEM":"UTC","SEMIMAJOR_AXIS":"6794.478","ELEMENT_SET_NO":"999","INCLINATION":"53.2177","MEAN_ELEMENT_THEORY":"SGP4","NORAD_CAT_ID":"53395","EPHEMERIS_TYPE":"0","BSTAR":"-0.02477700000000","GP_ID":"211923619","MEAN_ANOMALY":"308.0031","REF_FRAME":"TEME","OBJECT_ID":"2022-097H","MEAN_MOTION_DOT":"-0.01284136","DECAY_DATE":null,"OBJECT_TYPE":"PAYLOAD","TLE_LINE1":"1 53395U 22097H   22249.91667824 -.01284136  00000-0 -24777-1 0  9992","PERIAPSIS":"415.636","COUNTRY_CODE":"US","RCS_SIZE":"LARGE","CLASSIFICATION_TYPE":"U","FILE":"3561419"},{"BSTAR":"-0.00177320000000","GP_ID":"211924341","EPHEMERIS_TYPE":"0","MEAN_ANOMALY":"315.4421","REF_FRAME":"TEME","DECAY_DATE":null,"OBJECT_ID":"2022-097J","MEAN_MOTION_DOT":"-0.00100101","TLE_LINE1":"1 53396U 22097J   22249.91667824 -.00100101  00000-0 -17732-2 0  9995","PERIAPSIS":"415.893","OBJECT_TYPE":"PAYLOAD","COUNTRY_CODE":"US","CLASSIFICATION_TYPE":"U","FILE":"3561419","RCS_SIZE":"LARGE","TLE_LINE2":"2 53396  53.2188 111.8200 0001375  76.1679 315.4421 15.49966145  1304","LAUNCH_DATE":"2022-08-10","EPOCH":"2022-09-06T22:00:00.999936","APOAPSIS":"417.761","RA_OF_ASC_NODE":"111.8200","MEAN_MOTION_DDOT":"0.0000000000000","PERIOD":"92.905","SITE":"AFETR","CENTER_NAME":"EARTH","REV_AT_EPOCH":"130","ARG_OF_PERICENTER":"76.1679","OBJECT_NAME":"STARLINK-4524","ECCENTRICITY":"0.00013750","MEAN_MOTION":"15.49966145","SEMIMAJOR_AXIS":"6794.962","ELEMENT_SET_NO":"999","TIME_SYSTEM":"UTC","INCLINATION":"53.2188","MEAN_ELEMENT_THEORY":"SGP4","NORAD_CAT_ID":"53396"},{"OBJECT_NAME":"STARLINK-4515","MEAN_MOTION":"15.49896249","ECCENTRICITY":"0.00011800","TIME_SYSTEM":"UTC","ELEMENT_SET_NO":"999","SEMIMAJOR_AXIS":"6795.166","NORAD_CAT_ID":"53397","MEAN_ELEMENT_THEORY":"SGP4","INCLINATION":"53.2180","LAUNCH_DATE":"2022-08-10","EPOCH":"2022-09-06T22:00:00.999936","TLE_LINE2":"2 53397  53.2180 111.7880 0001180  80.5022 308.6424 15.49896249  1309","APOAPSIS":"417.833","RA_OF_ASC_NODE":"111.7880","ARG_OF_PERICENTER":"80.5022","REV_AT_EPOCH":"130","PERIOD":"92.909","SITE":"AFETR","CENTER_NAME":"EARTH","MEAN_MOTION_DDOT":"0.0000000000000","OBJECT_TYPE":"PAYLOAD","PERIAPSIS":"416.229","TLE_LINE1":"1 53397U 22097K   22249.91667824 -.00664236  00000-0 -12717-1 0  9997","COUNTRY_CODE":"US","RCS_SIZE":"LARGE","FILE":"3561419","CLASSIFICATION_TYPE":"U","EPHEMERIS_TYPE":"0","GP_ID":"211923878","BSTAR":"-0.01271700000000","MEAN_ANOMALY":"308.6424","REF_FRAME":"TEME","MEAN_MOTION_DOT":"-0.00664236","OBJECT_ID":"2022-097K","DECAY_DATE":null}];
